#dP2024  8 22  6  0  0.00000000      96 __u+U IGS20 EXT  IAC
## 2328 367200.00000000   900.00000000 60544 0.2500000000000
+   52   G02G03G04G05G06G07G08G09G10G11G12G13G14G15G16G17G18
+        G19G20G21G22G23G24G25G26G27G28G29G30G31G32R02R03R04
+        R05R07R08R09R11R12R14R15R16R17R18R19R20R21R22R24R25
+        R26  0  0  0  0  0  0  0  0  0  0  0  0  0  0  0  0
+          0  0  0  0  0  0  0  0  0  0  0  0  0  0  0  0  0
++         7  8  8  9  9  8  7  8  8  7  7  7  7  9  9  7  9
++         7  9  7  7  6  8  9  8  7  8  8  7  7  8  7  8  8
++         8  8  9  7  9  8  8  9  8  8  8  8 11  7  8  9  8
++         7  0  0  0  0  0  0  0  0  0  0  0  0  0  0  0  0
++         0  0  0  0  0  0  0  0  0  0  0  0  0  0  0  0  0
%c M  cc GPS ccc cccc cccc cccc cccc ccccc ccccc ccccc ccccc
%c cc cc ccc ccc cccc cccc cccc cccc ccccc ccccc ccccc ccccc
%f  0.0000000  0.000000000  0.00000000000  0.000000000000000
%f  0.0000000  0.000000000  0.00000000000  0.000000000000000
%i    0    0    0    0      0      0      0      0         0
%i    0    0    0    0      0      0      0      0         0
/* IAC                                ULTRA-RAPID PREDICTION
/* S/V CLOCKS ARE ALIGNED TO GNSS TIME                      
/* G:C1WC2W R:C1PC2P E:C1XC5X C:C2IC6I J:C1CC2S             
/* PCV:IGS20_2317 OL/AL:FES2004  NONE     YN ORB:CoN CLK:CoN
*  2024 08 22  9  0  0.00000000
PG02  17228.782820   3873.563142  20407.700614   -373.939525
PG03  20269.664006  -9098.350795  14300.843866    509.501792
PG04  25441.335270     -1.902275  -7865.474482    428.987833
PG05 -13915.173063  -6394.748180 -21891.626485   -184.035621
PG06  -4301.517239 -25406.969803   6266.823386     82.296006
PG07   9465.564752 -14633.147963 -19383.385187    -48.100011
PG08  25702.536248   6552.798750  -3903.274898    324.927549
PG09  18798.259235  -8875.268600 -16653.693747    324.393309
PG10  -7490.661757  21944.870879  12849.945012   -101.333279
PG11 -12524.279896 -22044.094101  -8002.290784   -724.943894
PG12 -20385.835466   4928.378049  15989.570666   -532.261912
PG13 -20495.970593 -14018.959285  -9975.322358    672.230551
PG14  10959.941033 -22283.809566   9146.923353    478.110493
PG15 -26132.906388  -3740.713607  -4190.333577    195.435089
PG16  10651.294319  11079.925502 -21991.340823   -201.833745
PG17   3808.060953 -14780.383980  22159.629323    648.295460
PG18  -8967.684511  15260.198877 -19713.249703   -648.100622
PG19  -6469.542581 -16242.050674  19958.696860    527.910245
PG20  -6985.235940 -16084.015174 -19924.934468    371.424184
PG21  18182.907045  10348.513728  17361.157599    103.130296
PG22   4942.680284 -20854.216592  16290.245803    -53.921625
PG23 -16224.014551  20870.079263    600.725912    302.934321
PG24 -17921.687003  -6268.821074  18295.139915   -486.539582
PG25 -19739.009357  15765.863094   7422.827144    499.403170
PG26   1324.284201  20175.510708 -17189.297059     95.433469
PG27  19324.038281  12933.081940 -13506.811343    -33.305534
PG28   3571.748671  24951.890030   8359.320039   -382.178005
PG29 -21836.478398   4589.785470 -14548.387101   -582.615189
PG30   1978.167563 -22857.726469 -12997.576497   -335.507416
PG31  10697.779559  23831.069667  -3693.602568   -225.603553
PG32  -1061.888900  15291.885894  21912.794862   -603.873584
PR02  24930.607813  -5277.858727  -1737.138779    -24.263283
PR03  15033.614854 -11116.058405 -17342.294688    106.103441
PR04  -2618.345852 -10382.306576 -23127.435536    251.086138
PR05 -18923.513052  -4408.233671 -16505.937054    136.466651
PR07 -14351.809038  11213.687823  17868.254743     89.315274
PR08   3058.803760  10438.136842  23127.914042     -6.383402
PR09 -13217.022411   9997.323829  19446.589162    204.786345
PR11  -2776.636433  23279.454523 -10061.040618     14.044649
PR12   8128.015956   9291.346119 -22290.254769     43.925593
PR14  10408.087001 -22577.003317  -5641.633982     26.831242
PR15   1853.593435 -22638.991143  11621.671212     76.612702
PR16  -7967.624156  -9379.768090  22352.193267     28.474810
PR17   2423.011583 -12702.258333  22005.368554    115.475145
PR18 -10035.688327 -20341.623101  11645.981706    158.243708
PR19 -16601.067572 -19145.726789  -2986.973243   -288.520167
PR20 -14691.853697  -4057.223182 -20436.375160   -118.020311
PR21  -3010.746839  12123.600174 -22233.062640   -128.055303
PR22  10228.725112  20904.446386 -10421.653826     64.251945
PR24  14943.639788   2607.694832  20515.691427    -68.847182
PR25  -2912.683454  12977.123759 -21755.292255   -100.835411
PR26   1421.581240  10733.711357  23111.678744     10.990672
*  2024 08 22  9 15  0.00000000
PG02  18116.524676   5843.945901  19126.419101   -373.932584
PG03  19267.497329  -7617.146037  16386.065462    509.514837
PG04  26131.392665    349.395300  -5137.888944    428.994476
PG05 -12482.145391  -8408.595506 -22069.131937   -184.036813
PG06  -3838.805757 -24655.979881   9006.827037     82.273674
PG07  10465.001784 -12452.263888 -20383.461341    -48.094983
PG08  25095.966640   6725.011231  -6631.736198    324.940328
PG09  20540.027739  -8485.281717 -14676.622302    324.407394
PG10  -8441.667664  22857.660571  10362.151650   -101.343507
PG11 -12559.062808 -22836.642610  -5274.951712   -724.948606
PG12 -19173.935411   3351.209928  17771.116175   -532.264573
PG13 -19255.948289 -13827.429401 -12440.798613    672.232513
PG14  11761.623738 -22784.873974   6506.022379    478.118313
PG15 -25559.776388  -4039.625385  -6891.912690    195.438957
PG16   8952.711666  12823.986578 -21756.986267   -201.824431
PG17   6185.375578 -14270.743754  21967.605941    648.286557
PG18  -9868.190805  13115.309272 -20814.552150   -648.103245
PG19  -4167.591571 -15717.194465  20923.333362    527.914845
PG20  -5833.770767 -17982.518381 -18648.725820    371.423826
PG21  18895.595100  11975.830213  15494.356305    103.129761
PG22   6208.339944 -21956.871479  14252.294824    -53.925299
PG23 -16336.962670  20659.612939  -2304.013906    302.942065
PG24 -18716.643907  -8196.059968  16744.328445   -486.539951
PG25 -19331.471967  14757.057954  10023.908662    499.403325
PG26     95.848732  21591.249179 -15376.331790     95.426414
PG27  17711.094634  12866.606052 -15622.279127    -33.305875
PG28   2924.829660  24028.324420  10920.754547   -382.191197
PG29 -23283.140232   4085.444985 -12282.181475   -582.613246
PG30   2830.869387 -21423.912817 -15111.823886   -335.501273
PG31  10498.737488  24158.886221   -843.200327   -225.603195
PG32  -3496.443971  14945.324976  21880.728195   -603.870843
PR02  24914.148544  -5454.773713   1481.777220    -24.263454
PR03  16964.883229 -11669.032691 -15057.132904    106.104210
PR04    171.511130 -10984.050354 -22998.233362    251.087512
PR05 -16775.780835  -4740.186491 -18604.471901    136.467110
PR07 -16342.923588  11770.092242  15654.780674     89.316075
PR08    291.266959  11056.522043  23037.564203     -6.383419
PR09 -12513.111422   7617.448632  20928.038893    204.788242
PR11  -2950.961392  24333.287600  -7083.018015     14.043595
PR12   7376.772004  11881.327041 -21300.048722     43.925988
PR14  10051.766193 -21758.305528  -8679.455109     26.831275
PR15   2111.593845 -23870.883847   8751.568901     76.612399
PR16  -7234.217818 -11971.656001  21336.895840     28.475074
PR17   4246.209547 -10623.006398  22812.229523    115.477951
PR18  -9097.814561 -19029.748406  14331.141139    158.245408
PR19 -16879.135536 -19133.945996    252.225852   -288.521522
PR20 -16328.106323  -5844.967853 -18684.855022   -118.020904
PR21  -4837.971942  10012.143621 -22953.053644   -128.058181
PR22   9383.793220  19706.420260 -13178.739467     64.244737
PR24  16635.528922   4348.715927  18847.101631    -68.848573
PR25  -4647.094937  10857.212009 -22600.868117   -100.835840
PR26  -1333.633616  11381.110089  22806.618045     10.993240
EOF
